[{"OBJECT_NAME":"STARLINK-34154","OBJECT_ID":"2025-101B","EPOCH":"2026-03-09T05:13:12.673056","MEAN_MOTION":15.2757391,"ECCENTRICITY":0.00014138,"INCLINATION":43.0018,"RA_OF_ASC_NODE":0.5839,"ARG_OF_PERICENTER":263.4199,"MEAN_ANOMALY":96.6491,"EPHEMERIS_TYPE":0,"CLASSIFICATION_TYPE":"U","NORAD_CAT_ID":63995,"ELEMENT_SET_NO":999,"REV_AT_EPOCH":4698,"BSTAR":0.0012535384,"MEAN_MOTION_DOT":0.00034387,"MEAN_MOTION_DDOT":0},{"OBJECT_NAME":"OBJECT P","OBJECT_ID":"2018-099P","EPOCH":"2026-03-09T16:35:55.790016","MEAN_MOTION":15.30834106,"ECCENTRICITY":0.00076856,"INCLINATION":97.4366,"RA_OF_ASC_NODE":131.9195,"ARG_OF_PERICENTER":276.7627,"MEAN_ANOMALY":83.2739,"EPHEMERIS_TYPE":0,"CLASSIFICATION_TYPE":"U","NORAD_CAT_ID":43771,"ELEMENT_SET_NO":999,"REV_AT_EPOCH":39830,"BSTAR":0.00063632878,"MEAN_MOTION_DOT":0.00018926,"MEAN_MOTION_DDOT":0}]
